IRIDIUM 63              
1 25286U 98021B   26015.47487869  .00000298  00000+0  94442-4 0  9995
2 25286  86.3997 353.0560 0002027  83.3533 276.7895 14.36767824454325
IRIDIUM 69              
1 25319U 98026A   26015.94350034  .00000259  00000+0  73957-4 0  9997
2 25319  86.3979   5.4743 0004239  63.7075 296.4560 14.41249854453706
IRIDIUM 71              
1 25320U 98026B   26015.92799836  .00000217  00000+0  60911-4 0  9994
2 25320  86.3983   0.1517 0004258  96.9262 263.2422 14.41342535454239
IRIDIUM 73              
1 25344U 98032C   26015.82237107  .00000426  00000+0  10032-3 0  9994
2 25344  86.4436 316.5072 0002366  68.9877 291.1582 14.52044045461410
IRIDIUM 82              
1 25467U 98051A   26015.90398398  .00030773  00000+0  51416-3 0  9999
2 25467  86.3594   3.8597 0056487 195.7065 164.2445 15.49921126456681
